NORAD_CAT_ID,OBJECT_NAME,OBJECT_TYPE,EPOCH,MEAN_MOTION,ECCENTRICITY,INCLINATION,RA_OF_ASC_NODE,ARG_OF_PERICENTER,MEAN_ANOMALY,BSTAR,MEAN_MOTION_DOT,MEAN_MOTION_DDOT,TLE_LINE0,TLE_LINE1,TLE_LINE2,SEMIMAJOR_AXIS,PERIOD,APOGEE,PERIGEE,DECAYED
51993.0,STARLINK-3648,PAYLOAD,2024-03-25 22:56:24,15.08838991,0.0002069,53.2196,3.1913,116.9453,243.1751,-0.00013817,-2.487e-05,0.0,0 STARLINK-3648,1 51993U 22025AP  24085.95584246 -.00002487  00000-0 -13817-3 0  9996,2 51993  53.2196   3.1913 0002069 116.9453 243.1751 15.08838991113312,6917.883,95.438,541.18,538.317,0.0
51993.0,STARLINK-3648,PAYLOAD,2024-03-26 03:42:34,15.08838902,0.0001346,53.2188,2.3008,101.3461,258.7682,0.00028423,4.238e-05,0.0,0 STARLINK-3648,1 51993U 22025AP  24086.15456347  .00004238  00000-0  28423-3 0  9992,2 51993  53.2188   2.3008 0001346 101.3461 258.7682 15.08838902113343,6917.884,95.438,540.68,538.818,0.0
51993.0,STARLINK-3648,PAYLOAD,2024-03-26 22:47:12,15.08831346,0.0001479,53.2201,358.7308,89.0749,271.0413,0.00022593,3.309e-05,0.0,0 STARLINK-3648,1 51993U 22025AP  24086.94945331  .00003309  00000-0  22593-3 0  9995,2 51993  53.2201 358.7308 0001479  89.0749 271.0413 15.08831346113466,6917.907,95.438,540.795,538.749,0.0
51993.0,STARLINK-3648,PAYLOAD,2024-03-27 00:22:35,15.08827989,0.0001353,53.2197,358.4339,103.9187,256.1955,0.00021621,3.154e-05,0.0,0 STARLINK-3648,1 51993U 22025AP  24087.01569168  .00003154  00000-0  21621-3 0  9993,2 51993  53.2197 358.4339 0001353 103.9187 256.1955 15.08827989114581,6917.917,95.438,540.718,538.846,0.0
51993.0,STARLINK-3648,PAYLOAD,2024-03-27 11:30:16,15.088472,0.0001227,53.2191,356.3541,112.4016,247.7106,0.00010003,1.305e-05,0.0,0 STARLINK-3648,1 51993U 22025AP  24087.47936145  .00001305  00000-0  10003-3 0  9994,2 51993  53.2191 356.3541 0001227 112.4016 247.7106 15.08847200114653,6917.858,95.437,540.572,538.875,0.0
51993.0,STARLINK-3648,PAYLOAD,2024-03-27 22:37:58,15.08842092,0.0001423,53.2199,354.2718,105.376,254.739,0.00016919,2.406e-05,0.0,0 STARLINK-3648,1 51993U 22025AP  24087.94304375  .00002406  00000-0  16919-3 0  9995,2 51993  53.2199 354.2718 0001423 105.3760 254.7390 15.08842092113611,6917.874,95.437,540.723,538.755,0.0
51993.0,STARLINK-3648,PAYLOAD,2024-03-28 03:24:07,15.08850793,0.0001484,53.22,353.3789,110.9241,249.191,0.00012191,1.653e-05,0.0,0 STARLINK-3648,1 51993U 22025AP  24088.14175855  .00001653  00000-0  12191-3 0  9998,2 51993  53.2200 353.3789 0001484 110.9241 249.1910 15.08850793113641,6917.847,95.437,540.739,538.686,0.0
51993.0,STARLINK-3648,PAYLOAD,2024-03-28 17:42:37,15.08840287,0.0001473,53.2195,350.7049,93.5709,266.5451,2.1785e-07,-2.84e-06,0.0,0 STARLINK-3648,1 51993U 22025AP  24088.73792973 -.00000284  00000-0  21785-6 0  9991,2 51993  53.2195 350.7049 0001473  93.5709 266.5451 15.08840287114840,6917.88,95.438,540.764,538.726,0.0
51993.0,STARLINK-3648,PAYLOAD,2024-03-28 22:28:46,15.0884434,0.0001729,53.2202,349.8098,85.4174,274.7015,-8.5917e-06,-4.25e-06,0.0,0 STARLINK-3648,1 51993U 22025AP  24088.93664788 -.00000425  00000-0 -85917-5 0  9999,2 51993  53.2202 349.8098 0001729  85.4174 274.7015 15.08844340113763,6917.867,95.437,540.928,538.536,0.0
51993.0,STARLINK-3648,PAYLOAD,2024-03-29 03:14:55,15.08845938,0.0001299,53.2193,348.9204,91.1191,268.995,4.6703e-05,4.56e-06,0.0,0 STARLINK-3648,1 51993U 22025AP  24089.13536402  .00000456  00000-0  46703-4 0  9994,2 51993  53.2193 348.9204 0001299  91.1191 268.9950 15.08845938114900,6917.862,95.437,540.626,538.829,0.0
51993.0,STARLINK-3648,PAYLOAD,2024-03-29 22:19:32,15.08848899,0.000149,53.2194,345.353,97.0913,263.0248,7.6218e-05,9.26e-06,0.0,0 STARLINK-3648,1 51993U 22025AP  24089.93023987  .00000926  00000-0  76218-4 0  9997,2 51993  53.2194 345.3530 0001490  97.0913 263.0248 15.08848899113919,6917.853,95.437,540.749,538.687,0.0
51993.0,STARLINK-3648,PAYLOAD,2024-03-30 03:05:41,15.08856059,0.0001245,53.2188,344.4598,85.5681,274.5453,7.5619e-05,9.16e-06,0.0,0 STARLINK-3648,1 51993U 22025AP  24090.12895392  .00000916  00000-0  75619-4 0  9990,2 51993  53.2188 344.4598 0001245  85.5681 274.5453 15.08856059115057,6917.831,95.437,540.558,538.835,0.0
51993.0,STARLINK-3648,PAYLOAD,2024-03-30 20:34:57,15.08836706,0.0001364,53.2177,341.1896,90.6896,269.4252,2.5958e-05,1.25e-06,0.0,0 STARLINK-3648,1 51993U 22025AP  24090.85760847  .00000125  00000-0  25958-4 0  9999,2 51993  53.2177 341.1896 0001364  90.6896 269.4252 15.08836706115166,6917.89,95.438,540.699,538.812,0.0
51993.0,STARLINK-3648,PAYLOAD,2024-03-30 22:10:20,15.0883667,0.000136,53.2187,340.8917,85.2201,274.8947,1.9616e-05,2.4e-07,0.0,0 STARLINK-3648,1 51993U 22025AP  24090.92384892  .00000024  00000-0  19616-4 0  9991,2 51993  53.2187 340.8917 0001360  85.2201 274.8947 15.08836670114062,6917.891,95.438,540.696,538.815,0.0
51993.0,STARLINK-3648,PAYLOAD,2024-03-31 09:18:02,15.08841766,0.0001324,53.2181,338.8116,76.4222,283.6918,4.8484e-05,4.84e-06,0.0,0 STARLINK-3648,1 51993U 22025AP  24091.38752503  .00000484  00000-0  48484-4 0  9995,2 51993  53.2181 338.8116 0001324  76.4222 283.6918 15.08841766114135,6917.875,95.437,540.656,538.824,0.0
51993.0,STARLINK-3648,PAYLOAD,2024-03-31 20:25:43,15.08848788,0.0001225,53.2178,336.73,76.6508,283.4621,1.1836e-05,-9.9e-07,0.0,0 STARLINK-3648,1 51993U 22025AP  24091.85120068 -.00000099  00000-0  11836-4 0  9996,2 51993  53.2178 336.7300 0001225  76.6508 283.4621 15.08848788115313,6917.854,95.437,540.566,538.871,0.0
51993.0,STARLINK-3648,PAYLOAD,2024-03-31 22:01:06,15.0884967,0.0001238,53.218,336.4327,76.931,283.182,2.2755e-05,7.4e-07,0.0,0 STARLINK-3648,1 51993U 22025AP  24091.91743970  .00000074  00000-0  22755-4 0  9990,2 51993  53.2180 336.4327 0001238  76.9310 283.1820 15.08849670114217,6917.851,95.437,540.572,538.859,0.0
51993.0,STARLINK-3648,PAYLOAD,2024-04-01 01:11:52,15.08855799,0.0001267,53.2183,335.8385,77.3946,282.7188,8.5708e-05,1.077e-05,0.0,0 STARLINK-3648,1 51993U 22025AP  24092.04991393  .00001077  00000-0  85708-4 0  9990,2 51993  53.2183 335.8385 0001267  77.3946 282.7188 15.08855799115345,6917.832,95.437,540.574,538.821,0.0
51993.0,STARLINK-3648,PAYLOAD,2024-04-01 09:08:48,15.08859358,0.0001435,53.2191,334.3501,68.3065,291.808,-9.1567e-05,-1.746e-05,0.0,0 STARLINK-3648,1 51993U 22025AP  24092.38111290 -.00001746  00000-0 -91567-4 0  9992,2 51993  53.2191 334.3501 0001435  68.3065 291.8080 15.08859358114286,6917.821,95.436,540.679,538.694,0.0
51993.0,STARLINK-3648,PAYLOAD,2024-04-01 20:16:31,15.08831361,0.0001561,53.218,332.2703,75.5588,284.5578,6.7482e-05,7.86e-06,0.0,0 STARLINK-3648,1 51993U 22025AP  24092.84481162  .00000786  00000-0  67482-4 0  9991,2 51993  53.2180 332.2703 0001561  75.5588 284.5578 15.08831361115461,6917.907,95.438,540.852,538.692,0.0
51993.0,STARLINK-3648,PAYLOAD,2024-04-02 08:59:36,15.08836971,0.000147,53.2178,329.8926,76.3733,283.7422,1.9568e-05,2.3e-07,0.0,0 STARLINK-3648,1 51993U 22025AP  24093.37472618  .00000023  00000-0  19568-4 0  9992,2 51993  53.2178 329.8926 0001470  76.3733 283.7422 15.08836971115547,6917.89,95.438,540.772,538.738,0.0
51993.0,STARLINK-3648,PAYLOAD,2024-04-02 21:42:41,15.0883918,0.0001533,53.2182,327.5151,78.0349,282.0815,2.9458e-05,1.81e-06,0.0,0 STARLINK-3648,1 51993U 22025AP  24093.90464735  .00000181  00000-0  29458-4 0  9996,2 51993  53.2182 327.5151 0001533  78.0349 282.0815 15.08839180114518,6917.883,95.438,540.808,538.687,0.0
51993.0,STARLINK-3648,PAYLOAD,2024-04-03 08:50:23,15.08843854,0.0001405,53.2175,325.434,77.5305,282.5844,5.0173e-05,5.11e-06,0.0,0 STARLINK-3648,1 51993U 22025AP  24094.36832575  .00000511  00000-0  50173-4 0  9993,2 51993  53.2175 325.4340 0001405  77.5305 282.5844 15.08843854114588,6917.869,95.437,540.706,538.762,0.0
51993.0,STARLINK-3648,PAYLOAD,2024-04-03 21:33:28,15.08840608,0.0001461,53.2174,323.0551,76.4132,283.7023,0.00023203,3.407e-05,0.0,0 STARLINK-3648,1 51993U 22025AP  24094.89824955  .00003407  00000-0  23203-3 0  9994,2 51993  53.2174 323.0551 0001461  76.4132 283.7023 15.08840608115771,6917.879,95.438,540.754,538.733,0.0
51993.0,STARLINK-3648,PAYLOAD,2024-04-04 08:41:10,15.08840722,0.0001386,53.2174,320.9716,84.084,276.031,0.00015915,2.246e-05,0.0,0 STARLINK-3648,1 51993U 22025AP  24095.36192944  .00002246  00000-0  15915-3 0  9994,2 51993  53.2174 320.9716 0001386  84.0840 276.0310 15.08840722114733,6917.878,95.438,540.702,538.784,0.0
51993.0,STARLINK-3648,PAYLOAD,2024-04-04 21:24:16,15.08828765,0.0001276,53.2186,318.5922,88.8943,271.2195,4.3016e-05,3.97e-06,0.0,0 STARLINK-3648,1 51993U 22025AP  24095.89185971  .00000397  00000-0  43016-4 0  9993,2 51993  53.2186 318.5922 0001276  88.8943 271.2195 15.08828765115925,6917.915,95.438,540.662,538.897,0.0
51993.0,STARLINK-3648,PAYLOAD,2024-04-05 14:53:30,15.08843115,0.0001385,53.2185,315.3215,90.7093,269.4058,9.3728e-05,1.204e-05,0.0,0 STARLINK-3648,1 51993U 22025AP  24096.62049011  .00001204  00000-0  93728-4 0  9992,2 51993  53.2185 315.3215 0001385  90.7093 269.4058 15.08843115114925,6917.871,95.437,540.694,538.778,0.0
51993.0,STARLINK-3648,PAYLOAD,2024-04-05 21:15:02,15.08851137,0.0001382,53.2186,314.1332,88.9505,271.1646,0.00017679,2.528e-05,0.0,0 STARLINK-3648,1 51993U 22025AP  24096.88544319  .00002528  00000-0  17679-3 0  9991,2 51993  53.2186 314.1332 0001382  88.9505 271.1646 15.08851137116071,6917.846,95.437,540.667,538.755,0.0
51993.0,STARLINK-3648,PAYLOAD,2024-04-06 14:44:17,15.08839658,0.0001354,53.2162,310.8612,90.2244,269.8903,0.00016333,2.312e-05,0.0,0 STARLINK-3648,1 51993U 22025AP  24097.61409154  .00002312  00000-0  16333-3 0  9997,2 51993  53.2162 310.8612 0001354  90.2244 269.8903 15.08839658115077,6917.881,95.438,540.683,538.81,0.0
51993.0,STARLINK-3648,PAYLOAD,2024-04-06 21:05:49,15.08844685,0.0001408,53.2174,309.6714,88.861,271.2543,0.00020892,3.039e-05,0.0,0 STARLINK-3648,1 51993U 22025AP  24097.87904849  .00003039  00000-0  20892-3 0  9998,2 51993  53.2174 309.6714 0001408  88.8610 271.2543 15.08844685116220,6917.866,95.437,540.705,538.757,0.0
